INTELSAT 902 (IS-902)   
1 26900U 01039A   17345.90882677  .00000026  00000-0  00000-0 0  9995
2 26900   0.0319  80.3904 0002892 180.1845 209.4186  1.00272580 59542
